#dP2023  3 21  6  0  0.00000000      96 __u+U ITR00 EXT  IAC
## 2254 194400.00000000   900.00000000 60024 0.2500000000000
+  120   C06C07C08C09C10C11C12C13C14C16C19C20C21C22C23C24C25
+        C26C27C28C29C30C32C33C34C35C36C37C38C39C40C41C42C43
+        C44C45C46E01E02E03E04E05E07E08E09E10E11E12E13E14E15
+        E18E19E21E24E25E26E27E30E31E33E34E36G01G02G03G04G05
+        G06G07G08G09G10G11G12G13G14G15G16G17G18G19G20G21G22
+        G23G24G25G26G27G28G29G30G31G32J02J03J04R01R02R03R04
+        R05R07R08R09R11R12R13R14R15R16R17R18R19R20R21R22R24
+        R25  0  0  0  0  0  0  0  0  0  0  0  0  0  0  0  0
++        14 10 10 10  9  9  7 10  9 11  8  8  8  9  9 10  9
++         9 10 10  9  9  9 10  8  8 10 10  9 10 11  8  9  7
++         7  9  8 10  9  8  8  8  8  8  8  8  8  8  9  8  8
++         8  8  8  9  9  9  8  9  8  9  9  9  8  8  8  8  8
++         8  8  8  8  8  7  8  8  9  8  8  8  8  8  7  8  8
++         8  8  8  8  8  9  7  9  8  8  8  9 10  8  9  8  9
++         9  8  8  8  8  9  7  9  8  8  8  8  9  9  9  8  8
++         8  0  0  0  0  0  0  0  0  0  0  0  0  0  0  0  0
%c M  cc GPS ccc cccc cccc cccc cccc ccccc ccccc ccccc ccccc
%c cc cc ccc ccc cccc cccc cccc cccc ccccc ccccc ccccc ccccc
%f  0.0000000  0.000000000  0.00000000000  0.000000000000000
%f  0.0000000  0.000000000  0.00000000000  0.000000000000000
%i    0    0    0    0      0      0      0      0         0
%i    0    0    0    0      0      0      0      0         0
/* IAC                                ULTRA-RAPID PREDICTION
/* S/V CLOCKS ARE ALIGNED TO GNSS TIME                      
/* G:C1WC2W R:C1PC2P E:C1XC5X C:C2IC6I J:C1CC2S             
/* PCV:IGS20_2247 OL/AL:FES2004  NONE     YN ORB:CoN CLK:CoN
*  2023 03 22  4 30  0.00000000
PC06 -12836.042477  39995.341973   -963.781695   -196.596244
PC07  -4533.016746  29318.509238  30043.953086    -55.861270
PC08 -17492.055846  22813.935910 -30905.769571    516.010835
PC09  -7272.203968  40305.365565   9131.674216    854.716932
PC10   3551.730368  32498.135527  27161.691701    -14.772545
PC11  11615.920163  14949.007842 -20442.499894    719.334637
PC12   1215.947086  27054.400279  -6697.366109    521.671066
PC13 -10267.990965  24193.635791 -32880.136968    235.057740
PC14  23046.259302  15775.253054    780.534303     22.824131
PC16 -13981.683518  39454.949283  -3218.108567    131.863068
PC19 -24417.637102  -9181.289412  -9847.487394   -896.825109
PC20 -18917.338210 -19305.503359   6893.706223    667.148357
PC21   1547.228881  18562.950924 -20764.463144   -908.801034
PC22 -16075.849783   6773.625503 -21768.660425   -574.082837
PC23  24470.723599 -13144.586897  -2660.270756   -891.914198
PC24   9046.667564  13731.684846  22527.976398   -265.604805
PC25  24415.889965  -1024.072137  13445.129197     91.968522
PC26  -9167.378096  18979.852859  18288.378650    -95.285674
PC27   4183.184539 -27554.579201  -1610.526047    114.107848
PC28  13561.488226 -17899.469908 -16565.777693     83.691741
PC29 -15703.481413  -3375.190870  22813.165622     96.717509
PC30  -8365.715844 -22478.217405  14278.980991      0.762246
PC32  -1556.456398 -18525.626308  20828.729825   -594.541325
PC33  24516.772112   9075.693786   9800.805215   -871.112431
PC34   9109.653305  21521.892478 -15243.180186    131.827031
PC35 -13353.171206  17418.712539  17198.224348    660.167608
PC36 -24146.609210    -84.899529 -13978.046233   -549.464091
PC37  10911.169178 -18766.771458 -17516.512567   -799.320879
PC38 -24830.938958  24014.022992 -24227.209810     66.576834
PC39 -15568.670988  37686.900532 -10218.895891     -2.267015
PC40  -7300.031286  24385.320650  33641.916860    -18.210596
PC41  16603.553002  -6350.612865  21571.857236   -753.190861
PC42  18143.881847  19631.132728  -8006.199758   -775.123032
PC43  15695.812008   4337.559021 -22670.714626     12.921089
PC44  -3267.122350  27637.816722   1750.160890     51.781956
PC45 -24326.284716  13347.182423   3081.632320    -75.232053
PC46 -10771.318029 -12675.201025 -22418.092678    -41.544309
PE01 -26131.698121   5452.243074  12792.718309    -13.430855
PE02  25847.362133  -5776.542820 -13208.138073     27.755514
PE03  14568.530560  -9065.631251  24121.179669   -661.537338
PE04  -1443.048913  25001.445560 -15768.097103    -83.640094
PE05  19422.120053  12587.528462  18460.736045    -84.171118
PE07 -12743.382840 -26643.495187  -1908.727149    -31.689388
PE08   1486.680841 -24853.047028  16007.029578    -54.964674
PE09  12695.192168  26689.390469   1759.192311   -877.432572
PE10  -5126.494684  24259.806452 -16169.319706   -520.822800
PE11   4186.292146  18713.324916 -22550.982076   1333.283050
PE12 -12794.128266  25491.546329  -7867.845518   -467.769433
PE13  -3405.807418 -19271.991465  22215.974755    -17.903145
PE14 -15264.278564   3460.143064  18672.756488    175.170905
PE15  13023.201010 -25496.671329   7550.379934     -9.113343
PE18  21311.938543   3715.970798 -23326.744105   -255.577876
PE19 -15736.062921   6110.459810 -24303.375198  -2951.048261
PE21 -28581.663285  -6496.096193  -4162.376851   -518.893741
PE24  14076.173738  16057.709941  20467.323528  -1178.423952
PE25  28480.609204   6694.090584   4467.430243   -601.789725
PE26 -18175.294812  -1147.134566  23337.753194     52.513022
PE27 -14977.379080 -15780.405310 -20080.861879   -540.650656
PE30   8059.121855 -15544.058417 -23879.835122    -30.228127
PE31  -7325.599269  15677.752061  24015.191318   -519.198098
PE33 -21641.233111  16606.252171  11475.692978   -448.500970
PE34  21597.609843 -16776.752454 -11331.014559    -36.154469
PE36  17654.080143   1818.939706 -23690.352538    -29.782882
PG01 -13225.939907  21901.625385  -6713.275096    200.433528
PG02   8820.623105 -23587.039885   9434.878333   -612.531345
PG03  -7680.708083  13470.572814 -21671.578981   -345.397733
PG04  -2213.357868  22909.880933 -13145.681065     -1.529369
PG05  22399.895159  -6046.949194  12865.313645   -120.400561
PG06  14922.995430   4301.427093 -21496.735693    582.938829
PG07   -874.014870  20226.486431  17377.870613    218.130327
PG08 -10170.535757  13325.745352  20442.474201   -114.081825
PG09   7039.213567  25335.838519  -3633.820046   -195.854945
PG10 -21541.499363 -11392.615136  11109.126049    -29.554537
PG11  21000.624788  -8434.473948 -13867.378986   -137.709063
PG12  10791.758895 -12366.864589 -21144.780686   -354.461270
PG13  14046.577521  -5435.756411  21689.458687    494.162648
PG14  19064.190422  13439.538709  12836.012780      2.631483
PG15   8524.333072 -15072.073793  19619.609841     23.697846
PG16 -24360.247020   1109.199989  10755.469866   -513.976323
PG17  12864.095679  20930.249226  -9532.690861    706.750001
PG18  -1788.558474 -17994.484896  19403.823033   -190.122684
PG19  15524.136769  12788.966439 -17716.710472    293.265217
PG20  26224.874652  -1866.348940   2942.408707    443.553147
PG21 -16987.670046  19560.379407   3728.010154    154.332662
PG22 -15987.633790  -9311.967902 -18674.834584    449.807842
PG23 -11146.327170 -14803.642363  19087.967412     11.985573
PG24  14099.430445 -22196.833547  -1677.660776   -121.362214
PG25  -1266.173917 -15797.910145 -21655.992038    429.602804
PG26 -26257.524538  -4607.213597  -2284.794210    241.981104
PG27 -15306.396277   1138.384994  21475.624670     75.789911
PG28 -14227.006071  -6223.269787 -21576.103616     49.087604
PG29  -2271.082687 -25520.316584  -6884.797800   -591.978136
PG30  10312.658867  12120.397188  21347.738002   -525.902936
PG31 -17988.451229   -819.271770 -19841.934123   -212.180171
PG32 -15501.545803 -18128.997915 -11719.612496   -430.267892
PJ02 -29843.572081  22141.577497  24958.977351     -1.262152
PJ03 -30995.329804  26231.731283  16431.743826      1.232181
PJ04 -25396.653738  20594.498262 -21459.993361     94.149849
PR01  -4846.746940  10508.749630 -22725.567880     25.226420
PR02  10289.513124  19537.365346 -12664.066156    -23.094880
PR03  18852.156749  16561.735410   4464.931493     74.612146
PR04  16601.308804   4769.800439  18799.578001    180.313442
PR05   5484.186883  -9759.091365  22939.185248    109.715833
PR07 -18972.267701 -16293.795923  -5104.963892     52.245381
PR08 -16628.269150  -4542.982962 -18750.218812    -70.000744
PR09   -740.671219 -11485.496059 -22754.210366    110.473509
PR11 -24787.682521   4739.677079  -3654.143730    -22.392521
PR12 -17355.933539  11655.538866  14646.510547     25.843378
PR13  -1348.126246  11615.458546  22650.114290    -33.191367
PR14  17812.150204   4278.016365  17764.635033     24.469993
PR15  24881.310455  -5047.167817   2500.468385     90.310060
PR16  17581.411353 -11633.293375 -14379.815709     12.650472
PR17   7030.209668  11194.861481 -21814.803112    614.502803
PR18  12075.645155  -6468.273198 -21517.725018     72.659534
PR19  11873.579641 -19538.802893 -11316.483183   -226.187071
PR20   3620.931341 -23514.135210   9275.047211    -89.777457
PR21  -7662.409845  -9493.282259  22397.684417   -382.147775
PR22 -12785.943641   6736.438432  21039.618199     75.939409
PR24  -2323.421676  23452.947576  -9751.183405    155.701152
PR25  -6674.714242 -11801.510933  21608.044767     58.457874
EOF
